NORAD_CAT_ID,OBJECT_NAME,OBJECT_TYPE,EPOCH,MEAN_MOTION,ECCENTRICITY,INCLINATION,RA_OF_ASC_NODE,ARG_OF_PERICENTER,MEAN_ANOMALY,BSTAR,MEAN_MOTION_DOT,MEAN_MOTION_DDOT,TLE_LINE0,TLE_LINE1,TLE_LINE2,SEMIMAJOR_AXIS,PERIOD,APOGEE,PERIGEE,DECAYED
50200.0,STARLINK-3235,PAYLOAD,2023-09-24 12:44:09,15.08850703,0.0001589,53.2161,306.6369,78.4088,281.7083,0.00011713,1.577e-05,0.0,0 STARLINK-3235,1 50200U 21125AW  23267.53066856  .00001577  00000-0  11713-3 0  9993,2 50200  53.2161 306.6369 0001589  78.4088 281.7083 15.08850703101309,6917.848,95.437,540.812,538.613,0.0
50200.0,STARLINK-3235,PAYLOAD,2023-09-25 09:24:10,15.08847425,0.0001676,53.2169,302.7743,96.3903,263.728,0.00014815,2.071e-05,0.0,0 STARLINK-3235,1 50200U 21125AW  23268.39179050  .00002071  00000-0  14815-3 0  9995,2 50200  53.2169 302.7743 0001676  96.3903 263.7280 15.08847425100947,6917.858,95.437,540.882,538.563,0.0
50200.0,STARLINK-3235,PAYLOAD,2023-09-25 14:10:19,15.08853885,0.0001599,53.2161,301.8788,92.5625,267.555,0.00023776,3.499e-05,0.0,0 STARLINK-3235,1 50200U 21125AW  23268.59050619  .00003499  00000-0  23776-3 0  9997,2 50200  53.2161 301.8788 0001599  92.5625 267.5550 15.08853885101468,6917.838,95.437,540.809,538.597,0.0
50200.0,STARLINK-3235,PAYLOAD,2023-09-25 23:42:39,15.08840478,0.0001984,53.2137,300.0901,108.5563,251.5645,0.00013168,1.808e-05,0.0,0 STARLINK-3235,1 50200U 21125AW  23268.98795248  .00001808  00000-0  13168-3 0  9990,2 50200  53.2137 300.0901 0001984 108.5563 251.5645 15.08840478101031,6917.879,95.438,541.116,538.371,0.0
50200.0,STARLINK-3235,PAYLOAD,2023-09-26 07:39:34,15.08859971,0.0001746,53.2167,298.6102,101.7028,258.416,0.00047364,7.262e-05,0.0,0 STARLINK-3235,1 50200U 21125AW  23269.31914496  .00007262  00000-0  47364-3 0  9991,2 50200  53.2167 298.6102 0001746 101.7028 258.4160 15.08859971101087,6917.819,95.436,540.892,538.476,0.0
50200.0,STARLINK-3235,PAYLOAD,2023-09-26 12:25:43,15.08869033,0.0001665,53.2176,297.7185,99.1277,260.9904,0.00055828,8.615e-05,0.0,0 STARLINK-3235,1 50200U 21125AW  23269.51785969  .00008615  00000-0  55828-3 0  9991,2 50200  53.2176 297.7185 0001665  99.1277 260.9904 15.08869033101606,6917.792,95.436,540.808,538.505,0.0
50200.0,STARLINK-3235,PAYLOAD,2023-09-27 09:05:45,15.08835088,0.0001605,53.216,293.8489,84.7648,275.3527,-7.0723e-05,-1.413e-05,0.0,0 STARLINK-3235,1 50200U 21125AW  23270.37899436 -.00001413  00000-0 -70723-4 0  9995,2 50200  53.2160 293.8489 0001605  84.7648 275.3527 15.08835088101243,6917.895,95.438,540.871,538.65,0.0
50200.0,STARLINK-3235,PAYLOAD,2023-09-27 10:41:08,15.08835399,0.0001627,53.2164,293.5515,93.7479,266.3699,-6.0941e-05,-1.258e-05,0.0,0 STARLINK-3235,1 50200U 21125AW  23270.44523331 -.00001258  00000-0 -60941-4 0  9999,2 50200  53.2164 293.5515 0001627  93.7479 266.3699 15.08835399101740,6917.894,95.438,540.885,538.634,0.0
50200.0,STARLINK-3235,PAYLOAD,2023-09-28 10:31:55,15.08831808,0.0001683,53.2152,289.0883,110.9165,249.2008,0.00011881,1.603e-05,0.0,0 STARLINK-3235,1 50200U 21125AW  23271.43884171  .00001603  00000-0  11881-3 0  9991,2 50200  53.2152 289.0883 0001683 110.9165 249.2008 15.08831808101409,6917.905,95.438,540.935,538.606,0.0
50200.0,STARLINK-3235,PAYLOAD,2023-09-29 10:22:42,15.08848145,0.0001539,53.2147,284.6302,90.7287,269.3882,0.00040289,6.131e-05,0.0,0 STARLINK-3235,1 50200U 21125AW  23272.43244056  .00006131  00000-0  40289-3 0  9999,2 50200  53.2147 284.6302 0001539  90.7287 269.3882 15.08848145101551,6917.855,95.437,540.785,538.656,0.0
50200.0,STARLINK-3235,PAYLOAD,2023-09-29 23:05:48,15.0884487,0.0001517,53.2144,282.2513,87.6496,272.467,0.00025983,3.85e-05,0.0,0 STARLINK-3235,1 50200U 21125AW  23272.96236143  .00003850  00000-0  25983-3 0  9994,2 50200  53.2144 282.2513 0001517  87.6496 272.4670 15.08844870101639,6917.866,95.437,540.78,538.681,0.0
50200.0,STARLINK-3235,PAYLOAD,2023-09-30 05:27:20,15.08850891,0.0001517,53.2145,281.0616,88.8535,271.2631,0.0003222,4.845e-05,0.0,0 STARLINK-3235,1 50200U 21125AW  23273.22731813  .00004845  00000-0  32220-3 0  9995,2 50200  53.2145 281.0616 0001517  88.8535 271.2631 15.08850891102161,6917.847,95.437,540.762,538.663,0.0
50200.0,STARLINK-3235,PAYLOAD,2023-10-01 00:31:58,15.08837959,0.0001485,53.2151,277.4927,103.7009,256.4148,-0.00011467,-2.112e-05,0.0,0 STARLINK-3235,1 50200U 21125AW  23274.02219944 -.00002112  00000-0 -11467-3 0  9997,2 50200  53.2151 277.4927 0001485 103.7009 256.4148 15.08837959101795,6917.887,95.438,540.779,538.724,0.0
50200.0,STARLINK-3235,PAYLOAD,2023-10-01 06:53:30,15.08845151,0.0001655,53.2165,276.3041,103.7539,256.3638,2.38e-05,9.1e-07,0.0,0 STARLINK-3235,1 50200U 21125AW  23274.28715798  .00000091  00000-0  23800-4 0  9990,2 50200  53.2165 276.3041 0001655 103.7539 256.3638 15.08845151102328,6917.865,95.437,540.875,538.585,0.0
50200.0,STARLINK-3235,PAYLOAD,2023-10-02 00:22:45,15.08833108,0.0001482,53.2151,273.0334,102.2045,257.9113,-6.8303e-05,-1.375e-05,0.0,0 STARLINK-3235,1 50200U 21125AW  23275.01580546 -.00001375  00000-0 -68303-4 0  9998,2 50200  53.2151 273.0334 0001482 102.2045 257.9113 15.08833108101947,6917.901,95.438,540.792,538.741,0.0
50200.0,STARLINK-3235,PAYLOAD,2023-10-02 11:30:27,15.08837793,0.000146,53.2157,270.9518,96.0258,264.09,5.183e-05,5.37e-06,0.0,0 STARLINK-3235,1 50200U 21125AW  23275.47948491  .00000537  00000-0  51830-4 0  9999,2 50200  53.2157 270.9518 0001460  96.0258 264.0900 15.08837793102505,6917.887,95.438,540.762,538.742,0.0
50200.0,STARLINK-3235,PAYLOAD,2023-10-03 04:59:42,15.08840268,0.0001545,53.2159,267.6796,97.5356,262.5812,0.00023356,3.431e-05,0.0,0 STARLINK-3235,1 50200U 21125AW  23276.20812718  .00003431  00000-0  23356-3 0  9990,2 50200  53.2159 267.6796 0001545  97.5356 262.5812 15.08840268102121,6917.88,95.438,540.813,538.676,0.0
50200.0,STARLINK-3235,PAYLOAD,2023-10-03 11:21:14,15.08852336,0.0001507,53.2159,266.4907,97.474,262.6424,0.00032587,4.904e-05,0.0,0 STARLINK-3235,1 50200U 21125AW  23276.47308109  .00004904  00000-0  32587-3 0  9995,2 50200  53.2159 266.4907 0001507  97.4740 262.6424 15.08852336102169,6917.843,95.437,540.75,538.665,0.0
50200.0,STARLINK-3235,PAYLOAD,2023-10-03 16:07:24,15.08832758,0.0001476,53.2158,265.5999,90.9363,269.1798,3.0646e-05,2e-06,0.0,0 STARLINK-3235,1 50200U 21125AW  23276.67181091  .00000200  00000-0  30646-4 0  9996,2 50200  53.2158 265.5999 0001476  90.9363 269.1798 15.08832758102198,6917.903,95.438,540.789,538.746,0.0
50200.0,STARLINK-3235,PAYLOAD,2023-10-04 09:36:38,15.08841229,0.0001823,53.2157,262.3267,76.6885,283.431,0.00012932,1.771e-05,0.0,0 STARLINK-3235,1 50200U 21125AW  23277.40044980  .00001771  00000-0  12932-3 0  9994,2 50200  53.2157 262.3267 0001823  76.6885 283.4310 15.08841229102794,6917.877,95.437,541.003,538.481,0.0
50200.0,STARLINK-3235,PAYLOAD,2023-10-04 15:58:11,15.08836745,0.0001414,53.2164,261.1367,93.3156,266.7998,-7.4973e-06,-4.07e-06,0.0,0 STARLINK-3235,1 50200U 21125AW  23277.66540917 -.00000407  00000-0 -74973-5 0  9995,2 50200  53.2164 261.1367 0001414  93.3156 266.7998 15.08836745102831,6917.89,95.438,540.734,538.777,0.0
50200.0,STARLINK-3235,PAYLOAD,2023-10-05 04:41:16,15.08848645,0.0001548,53.2146,258.7562,89.9765,270.1405,0.00013718,1.896e-05,0.0,0 STARLINK-3235,1 50200U 21125AW  23278.19532466  .00001896  00000-0  13718-3 0  9993,2 50200  53.2146 258.7562 0001548  89.9765 270.1405 15.08848645102424,6917.854,95.437,540.79,538.648,0.0
50200.0,STARLINK-3235,PAYLOAD,2023-10-05 11:02:48,15.08857232,0.0001592,53.2157,257.5666,86.3617,273.7558,0.00033974,5.126e-05,0.0,0 STARLINK-3235,1 50200U 21125AW  23278.46028054  .00005126  00000-0  33974-3 0  9992,2 50200  53.2157 257.5666 0001592  86.3617 273.7558 15.08857232102952,6917.828,95.436,540.794,538.591,0.0
50200.0,STARLINK-3235,PAYLOAD,2023-10-05 15:48:58,15.08831532,0.0001996,53.2159,256.6772,87.7303,272.3918,-0.00014807,-2.643e-05,0.0,0 STARLINK-3235,1 50200U 21125AW  23278.65901172 -.00002643  00000-0 -14807-3 0  9991,2 50200  53.2159 256.6772 0001996  87.7303 272.3918 15.08831532102496,6917.906,95.438,541.152,538.39,0.0
50200.0,STARLINK-3235,PAYLOAD,2023-10-06 04:32:03,15.0884126,0.0001401,53.217,254.2972,92.142,267.9733,6.3608e-05,7.25e-06,0.0,0 STARLINK-3235,1 50200U 21125AW  23279.18892697  .00000725  00000-0  63608-4 0  9992,2 50200  53.2170 254.2972 0001401  92.1420 267.9733 15.08841260102579,6917.877,95.437,540.711,538.772,0.0
50200.0,STARLINK-3235,PAYLOAD,2023-10-06 10:53:35,15.08847768,0.0001405,53.2167,253.107,91.7727,268.3426,0.00019289,2.784e-05,0.0,0 STARLINK-3235,1 50200U 21125AW  23279.45388416  .00002784  00000-0  19289-3 0  9993,2 50200  53.2167 253.1070 0001405  91.7727 268.3426 15.08847768103104,6917.857,95.437,540.694,538.75,0.0
50200.0,STARLINK-3235,PAYLOAD,2023-10-06 15:39:45,15.08825296,0.0001682,53.2166,252.2139,89.4331,270.6854,-0.00016371,-2.892e-05,0.0,0 STARLINK-3235,1 50200U 21125AW  23279.65261536 -.00002892  00000-0 -16371-3 0  9999,2 50200  53.2166 252.2139 0001682  89.4331 270.6854 15.08825296102642,6917.925,95.438,540.954,538.627,0.0
50200.0,STARLINK-3235,PAYLOAD,2023-10-07 04:22:50,15.0883711,0.0001238,53.2149,249.8379,87.5432,272.5702,0.00013172,1.809e-05,0.0,0 STARLINK-3235,1 50200U 21125AW  23280.18253230  .00001809  00000-0  13172-3 0  9992,2 50200  53.2149 249.8379 0001238  87.5432 272.5702 15.08837110102729,6917.889,95.438,540.611,538.898,0.0
50200.0,STARLINK-3235,PAYLOAD,2023-10-07 21:52:05,15.08846634,0.0001703,53.2162,246.5688,79.6021,280.5163,0.00054784,8.443e-05,0.0,0 STARLINK-3235,1 50200U 21125AW  23280.91117492  .00008443  00000-0  54784-3 0  9997,2 50200  53.2162 246.5688 0001703  79.6021 280.5163 15.08846634103322,6917.86,95.437,540.903,538.547,0.0
50200.0,STARLINK-3235,PAYLOAD,2023-10-08 04:13:37,15.0885475,0.0001396,53.2154,245.3763,105.3112,254.8034,0.00073972,0.00011509,0.0,0 STARLINK-3235,1 50200U 21125AW  23281.17613028  .00011509  00000-0  73972-3 0  9999,2 50200  53.2154 245.3763 0001396 105.3112 254.8034 15.08854750102878,6917.835,95.437,540.666,538.735,0.0
